GLOBALSTAR M063         
1 26081U 00008A   25047.76620740 -.00000102  00000+0 -28202-3 0  9996
2 26081  51.9956  68.7163 0004933  86.2632  84.6142 11.86165953143289
GLOBALSTAR M062         
1 26082U 00008B   25047.89544333 -.00000099  00000+0 -61652-5 0  9997
2 26082  51.9847  89.5223 0007022 211.7593 319.9068 12.43459670481653
GLOBALSTAR M060         
1 26083U 00008C   25047.66725323 -.00000116  00000+0 -25397-3 0  9997
2 26083  52.0037  33.1496 0003045 238.6713 293.0871 12.17655385137684
GLOBALSTAR M064         
1 26084U 00008D   25048.04924473 -.00000099  00000+0 -21841-3 0  9998
2 26084  52.0020 168.2155 0002040 160.9746 199.1163 11.88529789152925
GLOBALSTAR M065         
1 31571U 07020A   25048.26109662 -.00000076  00000+0  15366-3 0  9994
2 31571  51.9868 231.2845 0010983  46.4133 124.9119 12.61992110818571
GLOBALSTAR M069         
1 31573U 07020C   25048.15112163 -.00000085  00000+0  96892-4 0  9998
2 31573  51.9930 195.1891 0001847  89.2506  81.5145 12.47307911819177
GLOBALSTAR M072         
1 31574U 07020D   25047.97118431 -.00000137  00000+0 -72578-3 0  9995
2 31574  52.0177 311.9841 0001631  85.8669 287.0681 11.91776317817139
GLOBALSTAR M071         
1 31576U 07020F   25048.20118477 -.00000030  00000+0  59955-3 0  9999
2 31576  52.0037 207.0438 0000966 146.5948  24.5930 12.18248537819229
